STARLINK-11734 [DTC]    
1 64329U 25124N   26059.11530740  .00188341  00000+0  14351-2 0  9991
2 64329  43.0020  86.4705 0001720 245.1593 114.9096 15.70891639 41334
STARLINK-34252          
1 64330U 25124P   26059.04677904  .00051433  00000+0  18668-2 0  9995
2 64330  42.9985 176.3445 0000309 105.0285 255.0600 15.27557720 40304
STARLINK-34050          
1 64331U 25124Q   26059.03649169  .00030471  00000+0  11120-2 0  9992
2 64331  43.0013 176.2704 0002125 267.3930  92.6678 15.27584939 41362
STARLINK-33782          
1 64332U 25124R   26059.02491705  .00021351  00000+0  78242-3 0  9999
2 64332  43.0039 176.1747 0002531 276.2447  83.8116 15.27609578 40309
STARLINK-34207          
1 64333U 25124S   26059.04292115  .00027589  00000+0  10085-2 0  9995
2 64333  43.0013 176.3176 0001780 273.5620  86.5028 15.27574444 40303
STARLINK-34260          
1 64334U 25124T   26059.05061653  .00021985  00000+0  80490-3 0  9990
2 64334  43.0052 176.3742 0003483 268.5960  91.4492 15.27624294 40308
STARLINK-33855          
1 64335U 25124U   26058.69413477  .00020997  00000+0  76985-3 0  9991
2 64335  42.9987 177.9878 0001192 273.7639  86.3076 15.27602037 40253
STARLINK-34223          
1 64336U 25124V   26059.00999256  .00036637  00000+0  13343-2 0  9998
2 64336  42.9991 172.5961 0000978 285.4390  74.6354 15.27580665 40349
STARLINK-34216          
1 64337U 25124W   26059.00692947  .00034175  00000+0  12451-2 0  9990
2 64337  43.0031 176.0373 0001091 277.2032  82.8696 15.27595351 40306
STARLINK-34218          
1 64338U 25124X   26059.02154796  .00042301  00000+0  15364-2 0  9994
2 64338  43.0014 172.6951 0000816 280.5489  79.5270 15.27612511 40342
STARLINK-34017          
1 64339U 25124Y   26059.03265657  .00028381  00000+0  10361-2 0  9999
2 64339  42.9962 176.2320 0000551 282.4971  77.5819 15.27605115 40301
QPS-SAR-11 (YAMATSUMI-I)
1 64340U 25125A   26059.06968351  .00005929  00000+0  47688-3 0  9992
2 64340  42.0080  72.9461 0008551 151.0361 209.0940 15.00482271 39228
STARLINK-33977          
1 64344U 25126A   26059.14358580  .00009912  00000+0  83754-3 0  9993
2 64344  70.0010  58.4655 0003752 266.7724  93.3006 14.98320588 40468
STARLINK-34426          
1 64345U 25126B   26059.13922834  .00002647  00000+0  22949-3 0  9999
2 64345  70.0001  58.4424 0003065 270.3754  89.7054 14.98335681 39251
STARLINK-34437          
1 64346U 25126C   26059.10168534  .00001868  00000+0  16432-3 0  9990
2 64346  70.0014  58.7171 0003054 271.9931  88.0878 14.98333946 39247
STARLINK-34407          
1 64347U 25126D   26059.10603541 -.00012106  00000+0 -10093-2 0  9998
2 64347  70.0013  58.7270 0003846 285.6132  74.4603 14.98299359 39245
STARLINK-34274          
1 64348U 25126E   26059.11837774  .00014860  00000+0  12494-2 0  9991
2 64348  70.0007  58.7749 0003049 272.3050  87.7760 14.98366257 39240
STARLINK-34301          
1 64349U 25126F   26059.14340311 -.00000047  00000+0  38681-5 0  9993
2 64349  70.0011  58.4589 0003081 283.1747  76.9068 14.98335436 39251
STARLINK-34425          
1 64350U 25126G   26059.16427060  .00004455  00000+0  38083-3 0  9994
2 64350  70.0016  58.5322 0003041 266.3003  93.7809 14.98337194 39251
STARLINK-34389          
1 64351U 25126H   26059.15191461  .00003274  00000+0  28203-3 0  9998
2 64351  70.0013  58.4850 0003016 272.9998  87.0816 14.98333783 39256
STARLINK-34385          
1 64352U 25126J   26059.11002501  .00007637  00000+0  64680-3 0  9997
2 64352  70.0011  58.7443 0003074 270.5692  89.5115 14.98352061 39243
STARLINK-34431          
1 64353U 25126K   26059.13940328  .00005639  00000+0  48012-3 0  9999
2 64353  70.0008  58.4469 0003260 270.9863  89.0923 14.98321779 39251
STARLINK-34473          
1 64354U 25126L   26059.15179922  .00083963  00000+0  69462-2 0  9993
2 64354  70.0054  58.4928 0005899 188.6573 171.4486 14.98402275 39257
STARLINK-34270          
1 64355U 25126M   26059.15610161 -.00072493  00000+0 -61823-2 0  9990
2 64355  70.0011  58.5034 0002328 288.5784  71.5122 14.98007853 40463
STARLINK-34397          
1 64356U 25126N   26059.11420824  .00002540  00000+0  22050-3 0  9996
2 64356  70.0012  58.7547 0002783 275.5487  84.5354 14.98338739 39242
STARLINK-34454          
1 64357U 25126P   26059.11853442  .00017188  00000+0  14422-2 0  9990
2 64357  70.0022  58.7702 0003673 269.9087  90.1652 14.98396412 39245
STARLINK-34436          
1 64358U 25126Q   26059.13103691  .00002653  00000+0  23013-3 0  9995
2 64358  70.0006  58.4095 0003535 265.5419  94.5336 14.98321702 39256
STARLINK-34291          
1 64359U 25126R   26059.14775423  .00005754  00000+0  48945-3 0  9991
2 64359  70.0010  58.4682 0003136 275.6394  84.4407 14.98346605 39251
STARLINK-34458          
1 64360U 25126S   26059.08920482  .00146603  00000+0  11919-1 0  9991
2 64360  70.0006  58.6672 0006395 194.2265 165.8716 14.98708041 39244
STARLINK-34243          
1 64361U 25126T   26059.16009595  .00003548  00000+0  30491-3 0  9992
2 64361  70.0015  58.5187 0003109 268.6459  91.4344 14.98340237 39257
STARLINK-34335          
1 64362U 25126U   26058.73449143  .00003796  00000+0  32578-3 0  9995
2 64362  70.0009  59.4392 0003484 269.9552  90.1207 14.98324594 39198
STARLINK-34408          
1 64363U 25126V   26059.12672393  .00007724  00000+0  65427-3 0  9999
2 64363  70.0006  58.3984 0003409 273.0007  87.0762 14.98339246 39257
STARLINK-34476          
1 64364U 25126W   26059.14757766  .00005578  00000+0  47462-3 0  9994
2 64364  70.0022  58.4721 0002898 281.8762  78.2072 14.98352655 39257
STARLINK-34479          
1 64365U 25126X   26059.12255225  .00006139  00000+0  52158-3 0  9998
2 64365  70.0018  58.7829 0005008 283.3291  76.7310 14.98342114 39241
STARLINK-34484          
1 64366U 25126Y   26059.13087857  .00005077  00000+0  43283-3 0  9993
2 64366  70.0015  58.4103 0002754 269.1142  90.9702 14.98340765 40462
STARLINK-34483          
1 64367U 25126Z   26059.13522754  .00077056  00000+0  64049-2 0  9992
2 64367  70.0002  58.4230 0002367 270.4331  89.6556 14.98270975 39257
STARLINK-34457          
1 64368U 25126AA  26059.10586655 -.00005865  00000+0 -48433-3 0  9991
2 64368  70.0016  58.7276 0003300 278.9641  81.1145 14.98313520 39245
STARLINK-34444          
1 64369U 25126AB  26059.11020303 -.00005855  00000+0 -48371-3 0  9996
2 64369  70.0019  58.7384 0002176 268.1401  91.9509 14.98298171 39241
STARLINK-11732 [DTC]    
1 64370U 25127A   26058.71960968  .00200097  00000+0  15249-2 0  9994
2 64370  43.0001 144.6976 0002072 261.6405  98.4228 15.70851314 41937
STARLINK-11731 [DTC]    
1 64371U 25127B   26058.92629308  .00260227  00000+0  19643-2 0  9991
2 64371  43.0011 143.6751 0001065 293.8524  66.2232 15.70893181 41968
STARLINK-11746 [DTC]    
1 64372U 25127C   26058.51293175  .00230260  00000+0  17498-2 0  9996
2 64372  43.0017 145.7169 0000806 144.0247 216.0675 15.70824445 41909
STARLINK-11748 [DTC]    
1 64373U 25127D   26058.93782901  .00272311  00000+0  20531-2 0  9998
2 64373  43.0015 143.7665 0000487 340.9334  19.1516 15.70883732 41962
STARLINK-11739 [DTC]    
1 64374U 25127E   26058.94209527  .00295869  00000+0  22230-2 0  9999
2 64374  43.0008 142.9062 0001376 316.8310  43.2450 15.70895137 41979
STARLINK-11738 [DTC]    
1 64375U 25127F   26059.19123662  .00281417  00000+0  21185-2 0  9995
2 64375  43.0028 142.2261 0002794 273.7560  86.2988 15.70892107 42001
STARLINK-11745 [DTC]    
1 64376U 25127G   26058.52354858  .00160899  00000+0  12320-2 0  9996
2 64376  43.0006 145.8019 0001416 237.8970 122.1760 15.70865174 41904
STARLINK-11742 [DTC]    
1 64377U 25127H   26059.17531887  .00208188  00000+0  15833-2 0  9994
2 64377  43.0006 142.0963 0000750 241.7819 118.2973 15.70874585 42008
STARLINK-11711 [DTC]    
1 64378U 25127J   26058.95271344  .00284203  00000+0  21300-2 0  9997
2 64378  43.0005 142.9895 0001347 294.4372  65.6355 15.70990157 42084
STARLINK-11743 [DTC]    
1 64379U 25127K   26059.00001156 -.00129439  00000+0 -10181-2 0  9993
2 64379  43.0014 143.3025 0001567 255.0334 132.3605 15.70906451  5735
STARLINK-11744 [DTC]    
1 64380U 25127L   26058.59774807  .00214075  00000+0  16270-2 0  9992
2 64380  43.0019 145.5022 0001876 281.2706  78.7950 15.70873002 41911
STARLINK-11692 [DTC]    
1 64381U 25127M   26058.66671296  .00082739  00000+0  64363-3 0  9996
2 64381  43.0011 144.8641 0001570 268.5274 212.1781 15.70775469  6007
STARLINK-11740 [DTC]    
1 64382U 25127N   26058.94740072  .00264241  00000+0  19939-2 0  9995
2 64382  43.0012 142.9454 0001468 308.0916  51.9820 15.70889240 41970
STARLINK-34299          
1 64383U 25127P   26058.88826130  .00032723  00000+0  11928-2 0  9997
2 64383  42.9997 235.5251 0001866 278.0643  81.9997 15.27594675 40918
STARLINK-34271          
1 64384U 25127Q   26058.48438612  .00024280  00000+0  88848-3 0  9993
2 64384  43.0007 237.6508 0001472 270.2614  89.8069 15.27597209 40908
STARLINK-34100          
1 64385U 25127R   26058.48822174  .00022489  00000+0  82388-3 0  9996
2 64385  42.9983 237.6807 0002444 289.7857  70.2731 15.27593158 40859
STARLINK-34269          
1 64386U 25127S   26058.76889251  .00022437  00000+0  82188-3 0  9998
2 64386  42.9982 235.4736 0001617 272.9540  87.1126 15.27600679 40953
STARLINK-34351          
1 64387U 25127T   26058.76760910  .00020775  00000+0  76246-3 0  9990
2 64387  42.9964 235.4635 0001746 275.2913  84.7739 15.27574000 40956
STARLINK-34198          
1 64388U 25127U   26058.50478052  .00017898  00000+0  65826-3 0  9990
2 64388  42.9943 236.9338 0000772 271.0421  89.0342 15.27584135 40910
STARLINK-34279          
1 64389U 25127V   26058.76392074  .00022703  00000+0  83192-3 0  9995
2 64389  42.9972 236.3074 0001438 278.4379  81.6309 15.27583204 40947
STARLINK-34292          
1 64390U 25127W   26058.87283111  .00025686  00000+0  93946-3 0  9991
2 64390  43.0013 235.4018 0001678 268.4675  91.5984 15.27588055 40969
